{"fetched_at":"2026-03-29T16:36:15Z","count":15609,"tles":[{"name":"HONGYAN 1 (CHONGQING)","line1":"1 43914U 18112F   26087.92107709 -.00000140  00000+0 -18465-4 0  9996","line2":"2 43914  50.0074 172.2405 0006457  12.4714 347.6323 13.43816448355745","category":"Other"}]}