{
  "norad_id": 43914,
  "name": "HONGYAN 1 (CHONGQING)",
  "history": [
    {
      "epoch": "2026-03-28T22:06:21.060576Z",
      "apogee_km": 1099.921756100487,
      "perigee_km": 1090.2708226306013,
      "latitude_deg": -1.8184216296930014e-05,
      "longitude_deg": 14.318141482587118,
      "height_km": 1090.8935071636529,
      "semi_major_axis_km": 7473.233289365544,
      "eccentricity": 0.0006457,
      "inclination_deg": 50.0074,
      "raan_deg": 172.2405,
      "arg_perigee_deg": 12.4714,
      "mean_anomaly_deg": 347.6323,
      "mean_motion_rev_day": 13.43816448
    }
  ]
}